OBJECT_NAME,OBJECT_ID,EPOCH,MEAN_MOTION,ECCENTRICITY,INCLINATION,RA_OF_ASC_NODE,ARG_OF_PERICENTER,MEAN_ANOMALY,EPHEMERIS_TYPE,CLASSIFICATION_TYPE,NORAD_CAT_ID,ELEMENT_SET_NO,REV_AT_EPOCH,BSTAR,MEAN_MOTION_DOT,MEAN_MOTION_DDOT
CUTE-1 (CO-55),2003-031E,2026-05-09T11:17:47.411232,14.24311459,.0008445,98.6748,138.5155,302.0432,57.9926,0,U,27844,999,18616,.11576E-3,.224E-5,0
CUBESAT XI-IV (CO-57),2003-031J,2026-05-09T10:33:16.673184,14.23599872,.0008652,98.6780,138.2288,322.9503,37.1078,0,U,27848,999,18586,.10632E-3,.198E-5,0
CUBESAT XI-V,2005-043F,2026-05-09T09:35:55.815648,14.72529384,.0013359,98.2943,284.2197,333.2629,26.7887,0,U,28895,999,9604,.17481E-3,.1059E-4,0
CUTE-1.7+APD II (CO-65),2008-021C,2026-05-09T11:07:33.858048,15.09087619,.0009832,97.8266,110.0941,150.1468,210.0322,0,U,32785,999,97935,.22557E-3,.3511E-4,0
CANX-2,2008-021H,2026-05-09T11:19:45.291072,15.05344283,.0010759,97.8631,108.5123,165.1046,195.0498,0,U,32790,999,97898,.19189E-3,.2686E-4,0
SEEDS II (CO-66),2008-021J,2026-05-09T12:50:15.372960,15.31438560,.0005092,97.7532,125.6314,91.1474,269.0349,0,U,32791,999,98137,.43294E-3,.13075E-3,0
SWISSCUBE,2009-051B,2026-05-09T07:21:22.781952,14.62405622,.0006464,98.4059,36.5157,346.0075,14.0945,0,U,35932,999,88347,.16264E-3,.773E-5,0
BEESAT-1,2009-051C,2026-05-09T07:06:04.363776,14.61656191,.0005314,98.3987,36.2211,3.5007,356.6230,0,U,35933,999,88350,.14056E-3,.65E-5,0
ITUPSAT1,2009-051E,2026-05-08T05:24:05.910624,14.60379872,.0007794,98.4072,34.3677,12.9733,347.1666,0,U,35935,999,88290,.14375E-3,.647E-5,0
TISAT 1,2010-035E,2026-05-09T08:34:54.306336,15.30249315,.0003837,98.0692,72.5163,59.9584,300.2034,0,U,36799,999,86176,.55266E-3,.16108E-3,0
AEROCUBE 4.5A,2012-048K,2026-05-09T12:47:47.382720,15.77033795,.0019764,64.6299,166.0390,216.7760,143.2038,0,U,38767,999,36653,.71333E-3,.119503E-2,0
STRAND-1,2013-009E,2026-05-09T11:38:44.901024,14.37140171,.0008426,98.3917,310.6741,355.2659,4.8447,0,U,39090,999,69150,.84864E-4,.21E-5,0
BRITE-AUSTRIA,2013-009F,2026-05-09T11:33:22.884768,14.36526473,.0010165,98.3988,309.8772,2.9540,357.1705,0,U,39091,999,69149,.57881E-4,.127E-5,0
NEE-01 PEGASO,2013-018B,2026-05-09T08:11:28.447008,14.93470711,.0011281,98.1171,272.2253,294.0294,65.9744,0,U,39151,999,70490,.2409E-3,.2475E-4,0
POPACS 2,2013-055E,2026-05-08T21:51:17.091072,14.90325554,.0419805,80.9920,189.1231,320.1325,36.9726,0,U,39269,999,65736,.25226E-3,.14703E-3,0
POPACS 3,2013-055F,2026-05-08T09:18:08.390304,14.55142260,.05550402,81.0011,272.3074,191.0287,167.8332,0,U,39270,999,63276,.31051768E-3,.12939E-3,0
ZACUBE-1 (TSHEPISOSAT),2013-066B,2026-05-09T11:26:28.195008,15.00888362,.0042376,97.8124,91.6044,23.4307,336.8835,0,U,39417,999,67492,.30359E-3,.3874E-4,0
WNISAT-1,2013-066H,2026-05-09T08:50:52.554048,14.58015227,.0162971,97.7155,281.2912,354.6923,5.2543,0,U,39423,999,66107,.81055E-4,.396E-5,0
TRITON-1,2013-066M,2026-05-09T12:44:14.817984,14.81533105,.0090455,97.8264,40.2185,1.4549,358.6910,0,U,39427,999,66836,.14466E-3,.116E-4,0
GOMX-1,2013-066Q,2026-05-09T12:09:04.604256,14.69309091,.0128236,97.6511,332.4073,201.1545,158.4331,0,U,39430,999,66423,.22686E-3,.1467E-4,0
CUBEBUG-2 (LO-74),2013-066AA,2026-05-09T09:47:16.105056,14.93476844,.0058641,97.8886,78.2384,154.4064,206.0079,0,U,39440,999,67120,.28629E-3,.3053E-4,0
NEE-02 KRYSAOR,2013-066AB,2026-05-09T08:53:03.214176,14.86476070,.006574,97.8876,68.8713,195.7722,164.1448,0,U,39441,999,67043,.14022E-3,.123E-4,0
FUNCUBE-1 (AO-73),2013-066AE,2026-05-09T11:16:08.293152,15.08984310,.003584,97.8256,100.1281,338.2611,21.7094,0,U,39444,999,67382,.41405E-3,.6573E-4,0
UWE-3,2013-066AG,2026-05-08T20:12:38.683296,14.96703614,.00511901,97.8687,84.6693,90.6298,270.0789,0,U,39446,999,67169,.27466211E-3,.3158E-4,0
BRITE-CA1 (TORONTO),2014-033L,2026-05-09T07:24:48.503808,14.72623647,.0079538,97.9683,258.9676,42.2047,318.5247,0,U,40020,999,63649,.10253E-3,.633E-5,0
DUCHIFAT-1,2014-033M,2026-05-09T02:33:51.154848,15.57905226,.0005614,98.0510,183.0115,196.6222,163.4848,0,U,40021,999,64965,.93897E-3,.70523E-3,0
NANOSATC-BR1,2014-033Q,2026-05-09T12:11:56.237856,15.30242502,.0002181,98.0757,158.5041,344.2383,15.8788,0,U,40024,999,64806,.41152E-3,.11961E-3,0
QB50P1,2014-033R,2026-05-09T10:55:09.097824,15.17661614,.0008728,98.0988,137.9036,10.8785,349.2634,0,U,40025,999,64715,.33503E-3,.6677E-4,0
QB50P2,2014-033Y,2026-05-09T12:36:29.051136,15.14665856,.0006104,98.0759,124.0171,317.2310,42.8444,0,U,40032,999,64681,.305E-3,.557E-4,0
PERSEUS-M2,2014-033AD,2026-05-09T12:32:25.412640,14.95387268,.0013102,97.9939,79.2863,69.6458,290.6168,0,U,40037,999,64500,.96893E-4,.101E-4,0
